BEIDOU-2 IGSO-1 (C06)   
1 36828U 10036A   25330.97108404 -.00000047  00000+0  00000+0 0  9993
2 36828  54.2821 164.7916 0051162 215.6427 142.9222  1.00280845 56064
BEIDOU-2 G4 (C04)       
1 37210U 10057A   25331.22058706 -.00000091  00000+0  00000+0 0  9999
2 37210   3.1430  69.9800 0010495 186.3380  49.5629  1.00272238 55264
BEIDOU-2 IGSO-2 (C07)   
1 37256U 10068A   25330.52837703 -.00000203  00000+0  00000+0 0  9990
2 37256  47.9188 274.3518 0049523 216.7352 231.6226  1.00291753 54763
BEIDOU-2 IGSO-3 (C08)   
1 37384U 11013A   25330.67931219 -.00000180  00000+0  00000+0 0  9990
2 37384  62.1209  42.0726 0035890 185.7618 190.3659  1.00274581 53637
BEIDOU-2 IGSO-4 (C09)   
1 37763U 11038A   25330.52860841  .00000070  00000+0  00000+0 0  9991
2 37763  54.5799 167.4923 0148515 230.1939 312.1414  1.00285430 52613
BEIDOU-2 IGSO-5 (C10)   
1 37948U 11073A   25330.82357442 -.00000151  00000+0  00000+0 0  9997
2 37948  48.0521 274.0563 0110834 222.3740 318.0100  1.00294222 51109
BEIDOU-2 G5 (C05)       
1 38091U 12008A   25331.16402137  .00000077  00000+0  00000+0 0  9992
2 38091   3.0673  70.7553 0011784 225.2301 248.1090  1.00271129 50344
BEIDOU-2 M3 (C11)       
1 38250U 12018A   25331.29240023 -.00000039  00000+0  00000+0 0  9997
2 38250  55.9334 311.6771 0024617 273.0171  86.7042  1.86229829 92180
BEIDOU-2 M4 (C12)       
1 38251U 12018B   25330.68747353 -.00000038  00000+0  00000+0 0  9997
2 38251  55.8353 310.9277 0015738 275.8087  84.0138  1.86229534 92173
BEIDOU-2 M6 (C14)       
1 38775U 12050B   25330.39847370 -.00000014  00000+0  00000+0 0  9996
2 38775  56.3646  69.6099 0010720 347.4401  12.5457  1.86230815 89537
BEIDOU-2 G6 (C02)       
1 38953U 12059A   25331.16901338 -.00000156  00000+0  00000+0 0  9991
2 38953   3.9065  75.6562 0007158 293.6938 201.8968  1.00272516 47880
BEIDOU-3S M2S (C58)     
1 40748U 15037A   25330.35558740 -.00000040  00000+0  00000+0 0  9992
2 40748  55.0534 309.0264 0012611 266.1778  93.6783  1.86229172 70347
BEIDOU-3S M1S (C57)     
1 40749U 15037B   25330.05103794 -.00000040  00000+0  00000+0 0  9995
2 40749  55.0504 309.0266 0003268 354.4635   5.5327  1.86253920 70342
BEIDOU-3S IGSO-2S (C56) 
1 40938U 15053A   25330.77058465 -.00000141  00000+0  00000+0 0  9998
2 40938  49.5385 261.1973 0060956 189.0714 349.2558  1.00273744 37324
BEIDOU-2 IGSO-6 (C13)   
1 41434U 16021A   25330.76118422 -.00000139  00000+0  00000+0 0  9992
2 41434  59.9413  40.0617 0059121 230.8028 161.4458  1.00257951 35454
BEIDOU-2 G7 (C03)       
1 41586U 16037A   25331.17178023 -.00000334  00000+0  00000+0 0  9993
2 41586   1.7161  67.6013 0004774   9.5196 161.5148  1.00275315  4865
BEIDOU-3 M1 (C19)       
1 43001U 17069A   25330.70092284 -.00000013  00000+0  00000+0 0  9999
2 43001  56.5127  69.7649 0008551 303.3051  56.6257  1.86231032 54838
BEIDOU-3 M2 (C20)       
1 43002U 17069B   25331.17622378 -.00000014  00000+0  00000+0 0  9996
2 43002  56.5128  69.7846 0005996 333.8032  26.1791  1.86230724 54838
BEIDOU-3 M7 (C27)       
1 43107U 18003A   25330.91948558 -.00000041  00000+0  00000+0 0  9993
2 43107  54.5109 309.3653 0002492  72.4543 287.5746  1.86232419 53588
BEIDOU-3 M8 (C28)       
1 43108U 18003B   25330.86426102 -.00000041  00000+0  00000+0 0  9994
2 43108  54.5038 309.3501 0004879 272.5300  87.4155  1.86230890 53590
BEIDOU-3 M4 (C22)       
1 43207U 18018A   25330.76916615 -.00000013  00000+0  00000+0 0  9991
2 43207  56.4719  69.8337 0003950  19.0320 340.9952  1.86230999 52970
BEIDOU-3 M3 (C21)       
1 43208U 18018B   25329.76178844 -.00000014  00000+0  00000+0 0  9995
2 43208  56.4705  69.8711 0005935 317.5562  42.4090  1.86231215 52958
BEIDOU-3 M9 (C29)       
1 43245U 18029A   25329.97779700 -.00000041  00000+0  00000+0 0  9999
2 43245  54.3816 307.0534 0001866 270.6481  89.3293  1.86228234 52117
BEIDOU-3 M10 (C30)      
1 43246U 18029B   25330.45009515 -.00000040  00000+0  00000+0 0  9994
2 43246  54.3782 307.0634 0003852 357.9787   2.0194  1.86229042 52105
BEIDOU-2 IGSO-7 (C16)   
1 43539U 18057A   25330.96069126 -.00000050  00000+0  00000+0 0  9991
2 43539  55.1729 164.8105 0092255 235.1307 123.7708  1.00261856 27099
BEIDOU-3 M5 (C23)       
1 43581U 18062A   25330.13790347  .00000072  00000+0  00000+0 0  9992
2 43581  54.0892 189.2087 0002191 347.6481  12.4338  1.86228746 49853
BEIDOU-3 M6 (C24)       
1 43582U 18062B   25330.00106734  .00000071  00000+0  00000+0 0  9999
2 43582  54.0888 189.2025 0007611  44.7364 315.4127  1.86229819 49852
BEIDOU-3 M12 (C26)      
1 43602U 18067A   25329.93871625  .00000073  00000+0  00000+0 0  9997
2 43602  54.1830 187.9337 0009094  39.9000 320.2538  1.86227697 49339
BEIDOU-3 M11 (C25)      
1 43603U 18067B   25330.07318031  .00000074  00000+0  00000+0 0  9993
2 43603  54.1802 187.8932 0005520  35.0651 325.0577  1.86227194 49369
BEIDOU-3 M13 (C32)      
1 43622U 18072A   25330.02978743 -.00000015  00000+0  00000+0 0  9993
2 43622  56.4447  69.3740 0005306 298.9405  61.0187  1.86230866 48879
BEIDOU-3 M14 (C33)      
1 43623U 18072B   25330.43221112 -.00000014  00000+0  00000+0 0  9999
2 43623  56.4468  69.3545 0002870 339.6499  20.3516  1.86230850 48872
BEIDOU-3 M16 (C35)      
1 43647U 18078A   25330.05331913 -.00000041  00000+0  00000+0 0  9990
2 43647  54.2774 307.1047 0006834  17.8430 342.1798  1.86232283 48372
BEIDOU-3 M15 (C34)      
1 43648U 18078B   25330.71947617 -.00000040  00000+0  00000+0 0  9997
2 43648  54.2726 307.0824 0003480  16.3339 343.6773  1.86232159 48403
BEIDOU-3 G1 (C59)       
1 43683U 18085A   25331.20530876 -.00000258  00000+0  00000+0 0  9995
2 43683   2.5656 103.4642 0001683  53.4654 123.3683  1.00266364 26030
BEIDOU-3 M17 (C36)      
1 43706U 18093A   25331.04016071  .00000079  00000+0  00000+0 0  9998
2 43706  54.1727 189.1553 0006445 305.9834 162.9005  1.86228339 47771
BEIDOU-3 M18 (C37)      
1 43707U 18093B   25330.73916329  .00000076  00000+0  00000+0 0  9996
2 43707  54.1734 189.1574 0006422 350.0572  10.0161  1.86226614 47767
BEIDOU-3 IGSO-1 (C38)   
1 44204U 19023A   25323.59378135 -.00000226  00000+0  00000+0 0  9994
2 44204  58.4003  39.8168 0026966 221.2202 126.9723  1.00252177  5102
BEIDOU-2 G8 (C01)       
1 44231U 19027A   25330.89569087 -.00000227  00000+0  00000+0 0  9998
2 44231   1.6186  74.6740 0007872 256.8131 201.6172  1.00272936 24056
BEIDOU-3 IGSO-2 (C39)   
1 44337U 19035A   25330.93030627 -.00000054  00000+0  00000+0 0  9990
2 44337  55.2214 160.6413 0037547 202.0210 157.8746  1.00276159 23640
BEIDOU-3 M24 (C46)      
1 44542U 19061A   25330.81044059  .00000077  00000+0  00000+0 0  9992
2 44542  54.4001 189.5541 0009539  22.7789 337.3497  1.86229332 42029
BEIDOU-3 M23 (C45)      
1 44543U 19061B   25330.66610944  .00000076  00000+0  00000+0 0  9997
2 44543  54.3988 189.5274 0006035  20.6037 155.5934  1.86229531 42024
BEIDOU-3 IGSO-3 (C40)   
1 44709U 19073A   25324.29956875 -.00000206  00000+0  00000+0 0  9998
2 44709  55.1630 283.1590 0044538 191.5856 168.2409  1.00250097 22360
BEIDOU-3 M22 (C44)      
1 44793U 19078A   25330.65064681 -.00000041  00000+0  00000+0 0  9995
2 44793  54.1234 306.9510 0005535  22.1489 337.8749  1.86231977 40870
BEIDOU-3 M21 (C43)      
1 44794U 19078B   25330.78795339 -.00000041  00000+0  00000+0 0  9991
2 44794  54.0961 306.9116 0003748   9.1763 350.8306  1.86227695 40880
BEIDOU-3 M19 (C41)      
1 44864U 19090A   25331.07970350 -.00000015  00000+0  00000+0 0  9995
2 44864  56.3793  69.4819 0017343 284.4008 106.8263  1.86231348 40479
BEIDOU-3 M20 (C42)      
1 44865U 19090B   25330.41634389 -.00000014  00000+0  00000+0 0  9991
2 44865  56.3803  69.5381 0014440 297.2431  98.8498  1.86231370 40446
BEIDOU-3 G2 (C60)       
1 45344U 20017A   25331.16823338 -.00000122  00000+0  00000+0 0  9992
2 45344   2.9699  43.4415 0004125 265.2954 258.2474  1.00271646 21230
BEIDOU-3 G3 (C61)       
1 45807U 20040A   25331.17178023 -.00000334  00000+0  00000+0 0  9992
2 45807   1.9505  66.4547 0004921 310.4463 221.8699  1.00270648 20046
BEIDOU-3 G4 (C62)       
1 56564U 23066A   25331.22058706 -.00000092  00000+0  00000+0 0  9997
2 56564   0.8515 300.7035 0003613 228.5424 136.6404  1.00271886  9360
BEIDOU-3 M28 (C50)      
1 58654U 23207A   25329.79236581 -.00000017  00000+0  00000+0 0  9991
2 58654  55.5697  69.1755 0001753 260.4208  99.5711  1.86229726 13052
BEIDOU-3 M26 (C48)      
1 58655U 23207B   25330.12709977 -.00000016  00000+0  00000+0 0  9994
2 58655  55.5723  69.1504 0003227 247.2594 112.7188  1.86231238 13040
BEIDOU-3 M25 (C47)      
1 61186U 24168B   25330.75503000 -.00000041  00000+0  00000+0 0  9990
2 61186  54.6568 309.2750 0005597 292.7322 245.2027  1.86230085  8011
BEIDOU-3 M27 (C49)      
1 61187U 24168C   25330.55547524 -.00000041  00000+0  00000+0 0  9998
2 61187  54.6526 309.2656 0002289 325.5656 213.5122  1.86230231  5486
